{
"type": "FeatureCollection",
"name": "staff-postcode-locations",
"crs": { "type": "name", "properties": { "name": "urn:ogc:def:crs:EPSG::27700" } },
"features": [
{ "type": "Feature", "properties": { "pcds": "AL5 3BB", "lsoa21": "E01023690", "nearest_office_id": 7.0, "foe_office": "London", "distance_to_nearest_m": 42334.0, "distance_to_nearest_km": 42.3, "nearest_office_flag": "Further than 10miles" }, "geometry": { "type": "Point", "coordinates": [ 512680.0, 215184.0 ] } },
{ "type": "Feature", "properties": { "pcds": "B11 3AW", "lsoa21": "E01009391", "nearest_office_id": 1.0, "foe_office": "Birmingham", "distance_to_nearest_m": 4102.0, "distance_to_nearest_km": 4.1, "nearest_office_flag": "Within 10miles" }, "geometry": { "type": "Point", "coordinates": [ 409792.0, 283190.0 ] } },
{ "type": "Feature", "properties": { "pcds": "B30 1BQ", "lsoa21": "E01008960", "nearest_office_id": 1.0, "foe_office": "Birmingham", "distance_to_nearest_m": 7379.0, "distance_to_nearest_km": 7.4, "nearest_office_flag": "Within 10miles" }, "geometry": { "type": "Point", "coordinates": [ 404636.0, 279824.0 ] } },
{ "type": "Feature", "properties": { "pcds": "BA1 7SA", "lsoa21": "E01014374", "nearest_office_id": 3.0, "foe_office": "Bristol", "distance_to_nearest_m": 20872.0, "distance_to_nearest_km": 20.9, "nearest_office_flag": "Further than 10miles" }, "geometry": { "type": "Point", "coordinates": [ 379117.0, 166577.0 ] } },
{ "type": "Feature", "properties": { "pcds": "BA11 1HE", "lsoa21": "E01029041", "nearest_office_id": 3.0, "foe_office": "Bristol", "distance_to_nearest_m": 30799.0, "distance_to_nearest_km": 30.8, "nearest_office_flag": "Further than 10miles" }, "geometry": { "type": "Point", "coordinates": [ 376939.0, 147693.0 ] } },
{ "type": "Feature", "properties": { "pcds": "BA13 3ET", "lsoa21": "E01032119", "nearest_office_id": 3.0, "foe_office": "Bristol", "distance_to_nearest_m": 35713.0, "distance_to_nearest_km": 35.7, "nearest_office_flag": "Further than 10miles" }, "geometry": { "type": "Point", "coordinates": [ 387497.0, 151070.0 ] } },
{ "type": "Feature", "properties": { "pcds": "BA5 3BD", "lsoa21": "E01029060", "nearest_office_id": 3.0, "foe_office": "Bristol", "distance_to_nearest_m": 22907.0, "distance_to_nearest_km": 22.9, "nearest_office_flag": "Further than 10miles" }, "geometry": { "type": "Point", "coordinates": [ 352572.0, 150964.0 ] } },
{ "type": "Feature", "properties": { "pcds": "BD18 3NB", "lsoa21": "E01033694", "nearest_office_id": 5.0, "foe_office": "Leeds", "distance_to_nearest_m": 15956.0, "distance_to_nearest_km": 16.0, "nearest_office_flag": "Within 10miles" }, "geometry": { "type": "Point", "coordinates": [ 414290.0, 437570.0 ] } },
{ "type": "Feature", "properties": { "pcds": "BD18 4AG", "lsoa21": "E01010790", "nearest_office_id": 5.0, "foe_office": "Leeds", "distance_to_nearest_m": 17271.0, "distance_to_nearest_km": 17.3, "nearest_office_flag": "Further than 10miles" }, "geometry": { "type": "Point", "coordinates": [ 412814.0, 436971.0 ] } },
{ "type": "Feature", "properties": { "pcds": "BD18 4AG", "lsoa21": "E01010790", "nearest_office_id": 5.0, "foe_office": "Leeds", "distance_to_nearest_m": 17271.0, "distance_to_nearest_km": 17.3, "nearest_office_flag": "Further than 10miles" }, "geometry": { "type": "Point", "coordinates": [ 412814.0, 436971.0 ] } },
{ "type": "Feature", "properties": { "pcds": "BD18 4RL", "lsoa21": "E01010788", "nearest_office_id": 5.0, "foe_office": "Leeds", "distance_to_nearest_m": 16267.0, "distance_to_nearest_km": 16.3, "nearest_office_flag": "Further than 10miles" }, "geometry": { "type": "Point", "coordinates": [ 413952.0, 437495.0 ] } },
{ "type": "Feature", "properties": { "pcds": "BD5 0NG", "lsoa21": "E01010731", "nearest_office_id": 5.0, "foe_office": "Leeds", "distance_to_nearest_m": 14296.0, "distance_to_nearest_km": 14.3, "nearest_office_flag": "Within 10miles" }, "geometry": { "type": "Point", "coordinates": [ 415579.0, 432093.0 ] } },
{ "type": "Feature", "properties": { "pcds": "BH21 1EJ", "lsoa21": "E01020428", "nearest_office_id": 3.0, "foe_office": "Bristol", "distance_to_nearest_m": 83814.0, "distance_to_nearest_km": 83.8, "nearest_office_flag": "Further than 10miles" }, "geometry": { "type": "Point", "coordinates": [ 400585.0, 99989.0 ] } },
{ "type": "Feature", "properties": { "pcds": "BN1 6PF", "lsoa21": "E01017003", "nearest_office_id": 2.0, "foe_office": "Brighton", "distance_to_nearest_m": 2239.0, "distance_to_nearest_km": 2.2, "nearest_office_flag": "Within 10miles" }, "geometry": { "type": "Point", "coordinates": [ 530822.0, 106806.0 ] } },
{ "type": "Feature", "properties": { "pcds": "BN1 8EF", "lsoa21": "E01016930", "nearest_office_id": 2.0, "foe_office": "Brighton", "distance_to_nearest_m": 3232.0, "distance_to_nearest_km": 3.2, "nearest_office_flag": "Within 10miles" }, "geometry": { "type": "Point", "coordinates": [ 531223.0, 107798.0 ] } },
{ "type": "Feature", "properties": { "pcds": "BN2 3RH", "lsoa21": "E01016970", "nearest_office_id": 2.0, "foe_office": "Brighton", "distance_to_nearest_m": 1414.0, "distance_to_nearest_km": 1.4, "nearest_office_flag": "Within 10miles" }, "geometry": { "type": "Point", "coordinates": [ 531654.0, 105828.0 ] } },
{ "type": "Feature", "properties": { "pcds": "BN2 6PG", "lsoa21": "E01017007", "nearest_office_id": 2.0, "foe_office": "Brighton", "distance_to_nearest_m": 5345.0, "distance_to_nearest_km": 5.3, "nearest_office_flag": "Within 10miles" }, "geometry": { "type": "Point", "coordinates": [ 536132.0, 106072.0 ] } },
{ "type": "Feature", "properties": { "pcds": "BN2 7BY", "lsoa21": "E01016962", "nearest_office_id": 2.0, "foe_office": "Brighton", "distance_to_nearest_m": 5210.0, "distance_to_nearest_km": 5.2, "nearest_office_flag": "Within 10miles" }, "geometry": { "type": "Point", "coordinates": [ 536142.0, 103726.0 ] } },
{ "type": "Feature", "properties": { "pcds": "BN2 8EL", "lsoa21": "E01021030", "nearest_office_id": 2.0, "foe_office": "Brighton", "distance_to_nearest_m": 8294.0, "distance_to_nearest_km": 8.3, "nearest_office_flag": "Within 10miles" }, "geometry": { "type": "Point", "coordinates": [ 538909.0, 102072.0 ] } },
{ "type": "Feature", "properties": { "pcds": "BN3 6DE", "lsoa21": "E01016983", "nearest_office_id": 2.0, "foe_office": "Brighton", "distance_to_nearest_m": 3803.0, "distance_to_nearest_km": 3.8, "nearest_office_flag": "Within 10miles" }, "geometry": { "type": "Point", "coordinates": [ 528675.0, 107583.0 ] } },
{ "type": "Feature", "properties": { "pcds": "BN3 7AF", "lsoa21": "E01016979", "nearest_office_id": 2.0, "foe_office": "Brighton", "distance_to_nearest_m": 2919.0, "distance_to_nearest_km": 2.9, "nearest_office_flag": "Within 10miles" }, "geometry": { "type": "Point", "coordinates": [ 528344.0, 105782.0 ] } },
{ "type": "Feature", "properties": { "pcds": "BN3 7AH", "lsoa21": "E01016979", "nearest_office_id": 2.0, "foe_office": "Brighton", "distance_to_nearest_m": 2925.0, "distance_to_nearest_km": 2.9, "nearest_office_flag": "Within 10miles" }, "geometry": { "type": "Point", "coordinates": [ 528348.0, 105806.0 ] } },
{ "type": "Feature", "properties": { "pcds": "BN41 1AX", "lsoa21": "E01016975", "nearest_office_id": 2.0, "foe_office": "Brighton", "distance_to_nearest_m": 4968.0, "distance_to_nearest_km": 5.0, "nearest_office_flag": "Within 10miles" }, "geometry": { "type": "Point", "coordinates": [ 526077.0, 105233.0 ] } },
{ "type": "Feature", "properties": { "pcds": "BN7 1ER", "lsoa21": "E01021041", "nearest_office_id": 2.0, "foe_office": "Brighton", "distance_to_nearest_m": 10542.0, "distance_to_nearest_km": 10.5, "nearest_office_flag": "Within 10miles" }, "geometry": { "type": "Point", "coordinates": [ 540239.0, 109652.0 ] } },
{ "type": "Feature", "properties": { "pcds": "BR3 4RR", "lsoa21": "E01000797", "nearest_office_id": 7.0, "foe_office": "London", "distance_to_nearest_m": 9076.0, "distance_to_nearest_km": 9.1, "nearest_office_flag": "Within 10miles" }, "geometry": { "type": "Point", "coordinates": [ 536214.0, 169638.0 ] } },
{ "type": "Feature", "properties": { "pcds": "BR5 1PY", "lsoa21": "E01000815", "nearest_office_id": 7.0, "foe_office": "London", "distance_to_nearest_m": 16724.0, "distance_to_nearest_km": 16.7, "nearest_office_flag": "Further than 10miles" }, "geometry": { "type": "Point", "coordinates": [ 544978.0, 168048.0 ] } },
{ "type": "Feature", "properties": { "pcds": "BR6 7UL", "lsoa21": "E01000750", "nearest_office_id": 7.0, "foe_office": "London", "distance_to_nearest_m": 18177.0, "distance_to_nearest_km": 18.2, "nearest_office_flag": "Further than 10miles" }, "geometry": { "type": "Point", "coordinates": [ 544267.0, 164712.0 ] } },
{ "type": "Feature", "properties": { "pcds": "BS1 5RH", "lsoa21": "E01033905", "nearest_office_id": 3.0, "foe_office": "Bristol", "distance_to_nearest_m": 1106.0, "distance_to_nearest_km": 1.1, "nearest_office_flag": "Within 10miles" }, "geometry": { "type": "Point", "coordinates": [ 358117.0, 172948.0 ] } },
{ "type": "Feature", "properties": { "pcds": "BS1 5XJ", "lsoa21": "E01033344", "nearest_office_id": 3.0, "foe_office": "Bristol", "distance_to_nearest_m": 1219.0, "distance_to_nearest_km": 1.2, "nearest_office_flag": "Within 10miles" }, "geometry": { "type": "Point", "coordinates": [ 358018.0, 172688.0 ] } },
{ "type": "Feature", "properties": { "pcds": "BS15 8DN", "lsoa21": "E01014676", "nearest_office_id": 3.0, "foe_office": "Bristol", "distance_to_nearest_m": 4808.0, "distance_to_nearest_km": 4.8, "nearest_office_flag": "Within 10miles" }, "geometry": { "type": "Point", "coordinates": [ 363998.0, 173427.0 ] } },
{ "type": "Feature", "properties": { "pcds": "BS16 1DY", "lsoa21": "E01014577", "nearest_office_id": 3.0, "foe_office": "Bristol", "distance_to_nearest_m": 4405.0, "distance_to_nearest_km": 4.4, "nearest_office_flag": "Within 10miles" }, "geometry": { "type": "Point", "coordinates": [ 361723.0, 176510.0 ] } },
{ "type": "Feature", "properties": { "pcds": "BS16 3DY", "lsoa21": "E01014573", "nearest_office_id": 3.0, "foe_office": "Bristol", "distance_to_nearest_m": 3800.0, "distance_to_nearest_km": 3.8, "nearest_office_flag": "Within 10miles" }, "geometry": { "type": "Point", "coordinates": [ 362274.0, 175148.0 ] } },
{ "type": "Feature", "properties": { "pcds": "BS34 8TD", "lsoa21": "E01014979", "nearest_office_id": 3.0, "foe_office": "Bristol", "distance_to_nearest_m": 7497.0, "distance_to_nearest_km": 7.5, "nearest_office_flag": "Within 10miles" }, "geometry": { "type": "Point", "coordinates": [ 361740.0, 179946.0 ] } },
{ "type": "Feature", "properties": { "pcds": "BS5 6EF", "lsoa21": "E01014570", "nearest_office_id": 3.0, "foe_office": "Bristol", "distance_to_nearest_m": 2545.0, "distance_to_nearest_km": 2.5, "nearest_office_flag": "Within 10miles" }, "geometry": { "type": "Point", "coordinates": [ 361375.0, 174240.0 ] } },
{ "type": "Feature", "properties": { "pcds": "BS5 6HB", "lsoa21": "E01014569", "nearest_office_id": 3.0, "foe_office": "Bristol", "distance_to_nearest_m": 2575.0, "distance_to_nearest_km": 2.6, "nearest_office_flag": "Within 10miles" }, "geometry": { "type": "Point", "coordinates": [ 361310.0, 174390.0 ] } },
{ "type": "Feature", "properties": { "pcds": "BS5 6HQ", "lsoa21": "E01014570", "nearest_office_id": 3.0, "foe_office": "Bristol", "distance_to_nearest_m": 2711.0, "distance_to_nearest_km": 2.7, "nearest_office_flag": "Within 10miles" }, "geometry": { "type": "Point", "coordinates": [ 361519.0, 174324.0 ] } },
{ "type": "Feature", "properties": { "pcds": "BS5 8LD", "lsoa21": "E01014678", "nearest_office_id": 3.0, "foe_office": "Bristol", "distance_to_nearest_m": 3949.0, "distance_to_nearest_km": 3.9, "nearest_office_flag": "Within 10miles" }, "geometry": { "type": "Point", "coordinates": [ 363138.0, 173387.0 ] } },
{ "type": "Feature", "properties": { "pcds": "BS6 6QG", "lsoa21": "E01014560", "nearest_office_id": 3.0, "foe_office": "Bristol", "distance_to_nearest_m": 2110.0, "distance_to_nearest_km": 2.1, "nearest_office_flag": "Within 10miles" }, "geometry": { "type": "Point", "coordinates": [ 358028.0, 174625.0 ] } },
{ "type": "Feature", "properties": { "pcds": "BS6 7XU", "lsoa21": "E01014666", "nearest_office_id": 3.0, "foe_office": "Bristol", "distance_to_nearest_m": 3309.0, "distance_to_nearest_km": 3.3, "nearest_office_flag": "Within 10miles" }, "geometry": { "type": "Point", "coordinates": [ 358266.0, 176053.0 ] } },
{ "type": "Feature", "properties": { "pcds": "BS7 8RY", "lsoa21": "E01014514", "nearest_office_id": 3.0, "foe_office": "Bristol", "distance_to_nearest_m": 3250.0, "distance_to_nearest_km": 3.3, "nearest_office_flag": "Within 10miles" }, "geometry": { "type": "Point", "coordinates": [ 359231.0, 176135.0 ] } },
{ "type": "Feature", "properties": { "pcds": "BS7 9AR", "lsoa21": "E01014488", "nearest_office_id": 3.0, "foe_office": "Bristol", "distance_to_nearest_m": 1902.0, "distance_to_nearest_km": 1.9, "nearest_office_flag": "Within 10miles" }, "geometry": { "type": "Point", "coordinates": [ 359521.0, 174763.0 ] } },
{ "type": "Feature", "properties": { "pcds": "CA1 2DS", "lsoa21": "E01019236", "nearest_office_id": 5.0, "foe_office": "Leeds", "distance_to_nearest_m": 150430.0, "distance_to_nearest_km": 150.4, "nearest_office_flag": "Further than 10miles" }, "geometry": { "type": "Point", "coordinates": [ 341152.0, 555292.0 ] } },
{ "type": "Feature", "properties": { "pcds": "CF11 6EZ", "lsoa21": "W01001855", "nearest_office_id": 4.0, "foe_office": "Cardiff", "distance_to_nearest_m": 614.0, "distance_to_nearest_km": 0.6, "nearest_office_flag": "Within 10miles" }, "geometry": { "type": "Point", "coordinates": [ 317069.0, 176250.0 ] } },
{ "type": "Feature", "properties": { "pcds": "CF11 6JH", "lsoa21": "W01001857", "nearest_office_id": 4.0, "foe_office": "Cardiff", "distance_to_nearest_m": 733.0, "distance_to_nearest_km": 0.7, "nearest_office_flag": "Within 10miles" }, "geometry": { "type": "Point", "coordinates": [ 316960.0, 176179.0 ] } },
{ "type": "Feature", "properties": { "pcds": "CF15 7AS", "lsoa21": "W01001241", "nearest_office_id": 4.0, "foe_office": "Cardiff", "distance_to_nearest_m": 8920.0, "distance_to_nearest_km": 8.9, "nearest_office_flag": "Within 10miles" }, "geometry": { "type": "Point", "coordinates": [ 312143.0, 183999.0 ] } },
{ "type": "Feature", "properties": { "pcds": "CF5 1RA", "lsoa21": "W01001712", "nearest_office_id": 4.0, "foe_office": "Cardiff", "distance_to_nearest_m": 1191.0, "distance_to_nearest_km": 1.2, "nearest_office_flag": "Within 10miles" }, "geometry": { "type": "Point", "coordinates": [ 316190.0, 176780.0 ] } },
{ "type": "Feature", "properties": { "pcds": "CF83 1LJ", "lsoa21": "W01001425", "nearest_office_id": 4.0, "foe_office": "Cardiff", "distance_to_nearest_m": 10261.0, "distance_to_nearest_km": 10.3, "nearest_office_flag": "Within 10miles" }, "geometry": { "type": "Point", "coordinates": [ 315790.0, 186916.0 ] } },
{ "type": "Feature", "properties": { "pcds": "CH3 9ET", "lsoa21": "E01018373", "nearest_office_id": 6.0, "foe_office": "Manchester", "distance_to_nearest_m": 58120.0, "distance_to_nearest_km": 58.1, "nearest_office_flag": "Further than 10miles" }, "geometry": { "type": "Point", "coordinates": [ 346512.0, 354607.0 ] } },
{ "type": "Feature", "properties": { "pcds": "CO12 3NG", "lsoa21": "E01021998", "nearest_office_id": 7.0, "foe_office": "London", "distance_to_nearest_m": 110266.0, "distance_to_nearest_km": 110.3, "nearest_office_flag": "Further than 10miles" }, "geometry": { "type": "Point", "coordinates": [ 626043.0, 232502.0 ] } },
{ "type": "Feature", "properties": { "pcds": "CT2 7AQ", "lsoa21": "E01024100", "nearest_office_id": 7.0, "foe_office": "London", "distance_to_nearest_m": 85708.0, "distance_to_nearest_km": 85.7, "nearest_office_flag": "Further than 10miles" }, "geometry": { "type": "Point", "coordinates": [ 614749.0, 159622.0 ] } },
{ "type": "Feature", "properties": { "pcds": "CV21 3TE", "lsoa21": "E01031144", "nearest_office_id": 1.0, "foe_office": "Birmingham", "distance_to_nearest_m": 45197.0, "distance_to_nearest_km": 45.2, "nearest_office_flag": "Further than 10miles" }, "geometry": { "type": "Point", "coordinates": [ 451207.0, 274988.0 ] } },
{ "type": "Feature", "properties": { "pcds": "E1 4DL", "lsoa21": "E01035670", "nearest_office_id": 7.0, "foe_office": "London", "distance_to_nearest_m": 7474.0, "distance_to_nearest_km": 7.5, "nearest_office_flag": "Within 10miles" }, "geometry": { "type": "Point", "coordinates": [ 535706.0, 182571.0 ] } },
{ "type": "Feature", "properties": { "pcds": "E10 5QD", "lsoa21": "E01004376", "nearest_office_id": 7.0, "foe_office": "London", "distance_to_nearest_m": 11979.0, "distance_to_nearest_km": 12.0, "nearest_office_flag": "Within 10miles" }, "geometry": { "type": "Point", "coordinates": [ 538380.0, 186208.0 ] } },
{ "type": "Feature", "properties": { "pcds": "E11 2RS", "lsoa21": "E01003779", "nearest_office_id": 7.0, "foe_office": "London", "distance_to_nearest_m": 14745.0, "distance_to_nearest_km": 14.7, "nearest_office_flag": "Within 10miles" }, "geometry": { "type": "Point", "coordinates": [ 540170.0, 188317.0 ] } },
{ "type": "Feature", "properties": { "pcds": "E11 4HE", "lsoa21": "E01004336", "nearest_office_id": 7.0, "foe_office": "London", "distance_to_nearest_m": 11664.0, "distance_to_nearest_km": 11.7, "nearest_office_flag": "Within 10miles" }, "geometry": { "type": "Point", "coordinates": [ 538452.0, 185735.0 ] } },
{ "type": "Feature", "properties": { "pcds": "E17 4SQ", "lsoa21": "E01004408", "nearest_office_id": 7.0, "foe_office": "London", "distance_to_nearest_m": 14367.0, "distance_to_nearest_km": 14.4, "nearest_office_flag": "Within 10miles" }, "geometry": { "type": "Point", "coordinates": [ 537530.0, 189623.0 ] } },
{ "type": "Feature", "properties": { "pcds": "E17 5EL", "lsoa21": "E01004463", "nearest_office_id": 7.0, "foe_office": "London", "distance_to_nearest_m": 14513.0, "distance_to_nearest_km": 14.5, "nearest_office_flag": "Within 10miles" }, "geometry": { "type": "Point", "coordinates": [ 536996.0, 190054.0 ] } },
{ "type": "Feature", "properties": { "pcds": "E17 6LA", "lsoa21": "E01004396", "nearest_office_id": 7.0, "foe_office": "London", "distance_to_nearest_m": 13485.0, "distance_to_nearest_km": 13.5, "nearest_office_flag": "Within 10miles" }, "geometry": { "type": "Point", "coordinates": [ 536229.0, 189273.0 ] } },
{ "type": "Feature", "properties": { "pcds": "E17 7FT", "lsoa21": "E01004444", "nearest_office_id": 7.0, "foe_office": "London", "distance_to_nearest_m": 13155.0, "distance_to_nearest_km": 13.2, "nearest_office_flag": "Within 10miles" }, "geometry": { "type": "Point", "coordinates": [ 536631.0, 188722.0 ] } },
{ "type": "Feature", "properties": { "pcds": "E3 3NP", "lsoa21": "E01004236", "nearest_office_id": 7.0, "foe_office": "London", "distance_to_nearest_m": 8990.0, "distance_to_nearest_km": 9.0, "nearest_office_flag": "Within 10miles" }, "geometry": { "type": "Point", "coordinates": [ 537785.0, 182594.0 ] } },
{ "type": "Feature", "properties": { "pcds": "E5 9GX", "lsoa21": "E01033710", "nearest_office_id": 7.0, "foe_office": "London", "distance_to_nearest_m": 10894.0, "distance_to_nearest_km": 10.9, "nearest_office_flag": "Within 10miles" }, "geometry": { "type": "Point", "coordinates": [ 535297.0, 186852.0 ] } },
{ "type": "Feature", "properties": { "pcds": "E5 9QN", "lsoa21": "E01001793", "nearest_office_id": 7.0, "foe_office": "London", "distance_to_nearest_m": 10274.0, "distance_to_nearest_km": 10.3, "nearest_office_flag": "Within 10miles" }, "geometry": { "type": "Point", "coordinates": [ 535275.0, 186178.0 ] } },
{ "type": "Feature", "properties": { "pcds": "E7 0LP", "lsoa21": "E01003547", "nearest_office_id": 7.0, "foe_office": "London", "distance_to_nearest_m": 13593.0, "distance_to_nearest_km": 13.6, "nearest_office_flag": "Within 10miles" }, "geometry": { "type": "Point", "coordinates": [ 541111.0, 185792.0 ] } },
{ "type": "Feature", "properties": { "pcds": "E8 1LL", "lsoa21": "E01001760", "nearest_office_id": 7.0, "foe_office": "London", "distance_to_nearest_m": 9015.0, "distance_to_nearest_km": 9.0, "nearest_office_flag": "Within 10miles" }, "geometry": { "type": "Point", "coordinates": [ 534807.0, 185005.0 ] } },
{ "type": "Feature", "properties": { "pcds": "E9 5HF", "lsoa21": "E01001846", "nearest_office_id": 7.0, "foe_office": "London", "distance_to_nearest_m": 9871.0, "distance_to_nearest_km": 9.9, "nearest_office_flag": "Within 10miles" }, "geometry": { "type": "Point", "coordinates": [ 536714.0, 184835.0 ] } },
{ "type": "Feature", "properties": { "pcds": "E9 5TF", "lsoa21": "E01001849", "nearest_office_id": 7.0, "foe_office": "London", "distance_to_nearest_m": 9998.0, "distance_to_nearest_km": 10.0, "nearest_office_flag": "Within 10miles" }, "geometry": { "type": "Point", "coordinates": [ 537147.0, 184657.0 ] } },
{ "type": "Feature", "properties": { "pcds": "E9 6AD", "lsoa21": "E01001733", "nearest_office_id": 7.0, "foe_office": "London", "distance_to_nearest_m": 9872.0, "distance_to_nearest_km": 9.9, "nearest_office_flag": "Within 10miles" }, "geometry": { "type": "Point", "coordinates": [ 535877.0, 185397.0 ] } },
{ "type": "Feature", "properties": { "pcds": "E9 7RY", "lsoa21": "E01001842", "nearest_office_id": 7.0, "foe_office": "London", "distance_to_nearest_m": 8252.0, "distance_to_nearest_km": 8.3, "nearest_office_flag": "Within 10miles" }, "geometry": { "type": "Point", "coordinates": [ 535116.0, 183964.0 ] } },
{ "type": "Feature", "properties": { "pcds": "EN1 1PZ", "lsoa21": "E01001512", "nearest_office_id": 7.0, "foe_office": "London", "distance_to_nearest_m": 19529.0, "distance_to_nearest_km": 19.5, "nearest_office_flag": "Further than 10miles" }, "geometry": { "type": "Point", "coordinates": [ 533456.0, 196275.0 ] } },
{ "type": "Feature", "properties": { "pcds": "EN4 8SH", "lsoa21": "E01000170", "nearest_office_id": 7.0, "foe_office": "London", "distance_to_nearest_m": 19079.0, "distance_to_nearest_km": 19.1, "nearest_office_flag": "Further than 10miles" }, "geometry": { "type": "Point", "coordinates": [ 527243.0, 195670.0 ] } },
{ "type": "Feature", "properties": { "pcds": "EN4 9AS", "lsoa21": "E01000167", "nearest_office_id": 7.0, "foe_office": "London", "distance_to_nearest_m": 20198.0, "distance_to_nearest_km": 20.2, "nearest_office_flag": "Further than 10miles" }, "geometry": { "type": "Point", "coordinates": [ 526671.0, 196697.0 ] } },
{ "type": "Feature", "properties": { "pcds": "EX8 1PY", "lsoa21": "E01019916", "nearest_office_id": 3.0, "foe_office": "Bristol", "distance_to_nearest_m": 108946.0, "distance_to_nearest_km": 108.9, "nearest_office_flag": "Further than 10miles" }, "geometry": { "type": "Point", "coordinates": [ 300293.0, 81251.0 ] } },
{ "type": "Feature", "properties": { "pcds": "FK10 2DF", "lsoa21": "S01015153", "nearest_office_id": 5.0, "foe_office": "Leeds", "distance_to_nearest_m": 295658.0, "distance_to_nearest_km": 295.7, "nearest_office_flag": "Further than 10miles" }, "geometry": { "type": "Point", "coordinates": [ 288066.0, 693224.0 ] } },
{ "type": "Feature", "properties": { "pcds": "GL18 1UD", "lsoa21": "E01022261", "nearest_office_id": 3.0, "foe_office": "Bristol", "distance_to_nearest_m": 54364.0, "distance_to_nearest_km": 54.4, "nearest_office_flag": "Further than 10miles" }, "geometry": { "type": "Point", "coordinates": [ 372746.0, 225540.0 ] } },
{ "type": "Feature", "properties": { "pcds": "GU1 3XW", "lsoa21": "E01030456", "nearest_office_id": 7.0, "foe_office": "London", "distance_to_nearest_m": 41815.0, "distance_to_nearest_km": 41.8, "nearest_office_flag": "Further than 10miles" }, "geometry": { "type": "Point", "coordinates": [ 500028.0, 148622.0 ] } },
{ "type": "Feature", "properties": { "pcds": "GU19 5NF", "lsoa21": "E01030758", "nearest_office_id": 7.0, "foe_office": "London", "distance_to_nearest_m": 41502.0, "distance_to_nearest_km": 41.5, "nearest_office_flag": "Further than 10miles" }, "geometry": { "type": "Point", "coordinates": [ 491596.0, 163326.0 ] } },
{ "type": "Feature", "properties": { "pcds": "GU31 5SA", "lsoa21": "E01022592", "nearest_office_id": 2.0, "foe_office": "Brighton", "distance_to_nearest_m": 59342.0, "distance_to_nearest_km": 59.3, "nearest_office_flag": "Further than 10miles" }, "geometry": { "type": "Point", "coordinates": [ 473818.0, 120434.0 ] } },
{ "type": "Feature", "properties": { "pcds": "GU7 3EU", "lsoa21": "E01030921", "nearest_office_id": 7.0, "foe_office": "London", "distance_to_nearest_m": 46082.0, "distance_to_nearest_km": 46.1, "nearest_office_flag": "Further than 10miles" }, "geometry": { "type": "Point", "coordinates": [ 497772.0, 144798.0 ] } },
{ "type": "Feature", "properties": { "pcds": "HA3 0AD", "lsoa21": "E01000568", "nearest_office_id": 7.0, "foe_office": "London", "distance_to_nearest_m": 18308.0, "distance_to_nearest_km": 18.3, "nearest_office_flag": "Further than 10miles" }, "geometry": { "type": "Point", "coordinates": [ 516237.0, 188015.0 ] } },
{ "type": "Feature", "properties": { "pcds": "HD3 4ZX", "lsoa21": "E01011155", "nearest_office_id": 5.0, "foe_office": "Leeds", "distance_to_nearest_m": 25353.0, "distance_to_nearest_km": 25.4, "nearest_office_flag": "Further than 10miles" }, "geometry": { "type": "Point", "coordinates": [ 410576.0, 417189.0 ] } },
{ "type": "Feature", "properties": { "pcds": "HP4 1JD", "lsoa21": "E01023364", "nearest_office_id": 7.0, "foe_office": "London", "distance_to_nearest_m": 44788.0, "distance_to_nearest_km": 44.8, "nearest_office_flag": "Further than 10miles" }, "geometry": { "type": "Point", "coordinates": [ 499076.0, 208536.0 ] } },
{ "type": "Feature", "properties": { "pcds": "HX7 7NB", "lsoa21": "E01010887", "nearest_office_id": 5.0, "foe_office": "Leeds", "distance_to_nearest_m": 31579.0, "distance_to_nearest_km": 31.6, "nearest_office_flag": "Further than 10miles" }, "geometry": { "type": "Point", "coordinates": [ 398713.0, 428079.0 ] } },
{ "type": "Feature", "properties": { "pcds": "IG11 0ZG", "lsoa21": "E01034478", "nearest_office_id": 7.0, "foe_office": "London", "distance_to_nearest_m": 17628.0, "distance_to_nearest_km": 17.6, "nearest_office_flag": "Further than 10miles" }, "geometry": { "type": "Point", "coordinates": [ 547480.0, 182648.0 ] } },
{ "type": "Feature", "properties": { "pcds": "KT12 2NR", "lsoa21": "E01030358", "nearest_office_id": 7.0, "foe_office": "London", "distance_to_nearest_m": 22679.0, "distance_to_nearest_km": 22.7, "nearest_office_flag": "Further than 10miles" }, "geometry": { "type": "Point", "coordinates": [ 510625.0, 166580.0 ] } },
{ "type": "Feature", "properties": { "pcds": "KT8 9EA", "lsoa21": "E01030329", "nearest_office_id": 7.0, "foe_office": "London", "distance_to_nearest_m": 18722.0, "distance_to_nearest_km": 18.7, "nearest_office_flag": "Further than 10miles" }, "geometry": { "type": "Point", "coordinates": [ 514166.0, 168347.0 ] } },
{ "type": "Feature", "properties": { "pcds": "LA1 3EN", "lsoa21": "E01025095", "nearest_office_id": 6.0, "foe_office": "Manchester", "distance_to_nearest_m": 72667.0, "distance_to_nearest_km": 72.7, "nearest_office_flag": "Further than 10miles" }, "geometry": { "type": "Point", "coordinates": [ 348494.0, 461623.0 ] } },
{ "type": "Feature", "properties": { "pcds": "LL57 4RA", "lsoa21": "W01000115", "nearest_office_id": 6.0, "foe_office": "Manchester", "distance_to_nearest_m": 128300.0, "distance_to_nearest_km": 128.3, "nearest_office_flag": "Further than 10miles" }, "geometry": { "type": "Point", "coordinates": [ 260041.0, 367635.0 ] } },
{ "type": "Feature", "properties": { "pcds": "LS16 7SN", "lsoa21": "E01011378", "nearest_office_id": 5.0, "foe_office": "Leeds", "distance_to_nearest_m": 7690.0, "distance_to_nearest_km": 7.7, "nearest_office_flag": "Within 10miles" }, "geometry": { "type": "Point", "coordinates": [ 425994.0, 440435.0 ] } },
{ "type": "Feature", "properties": { "pcds": "LS8 2RS", "lsoa21": "E01011645", "nearest_office_id": 5.0, "foe_office": "Leeds", "distance_to_nearest_m": 3932.0, "distance_to_nearest_km": 3.9, "nearest_office_flag": "Within 10miles" }, "geometry": { "type": "Point", "coordinates": [ 432666.0, 436412.0 ] } },
{ "type": "Feature", "properties": { "pcds": "LU2 0BA", "lsoa21": "E01015743", "nearest_office_id": 7.0, "foe_office": "London", "distance_to_nearest_m": 49368.0, "distance_to_nearest_km": 49.4, "nearest_office_flag": "Further than 10miles" }, "geometry": { "type": "Point", "coordinates": [ 509872.0, 221637.0 ] } },
{ "type": "Feature", "properties": { "pcds": "LU2 7QA", "lsoa21": "E01015739", "nearest_office_id": 7.0, "foe_office": "London", "distance_to_nearest_m": 50128.0, "distance_to_nearest_km": 50.1, "nearest_office_flag": "Further than 10miles" }, "geometry": { "type": "Point", "coordinates": [ 508878.0, 222004.0 ] } },
{ "type": "Feature", "properties": { "pcds": "LU2 9DP", "lsoa21": "E01015776", "nearest_office_id": 7.0, "foe_office": "London", "distance_to_nearest_m": 50290.0, "distance_to_nearest_km": 50.3, "nearest_office_flag": "Further than 10miles" }, "geometry": { "type": "Point", "coordinates": [ 510404.0, 222893.0 ] } },
{ "type": "Feature", "properties": { "pcds": "LU6 1RQ", "lsoa21": "E01017588", "nearest_office_id": 7.0, "foe_office": "London", "distance_to_nearest_m": 54729.0, "distance_to_nearest_km": 54.7, "nearest_office_flag": "Further than 10miles" }, "geometry": { "type": "Point", "coordinates": [ 498984.0, 221454.0 ] } },
{ "type": "Feature", "properties": { "pcds": "M19 3LA", "lsoa21": "E01005220", "nearest_office_id": 6.0, "foe_office": "Manchester", "distance_to_nearest_m": 5472.0, "distance_to_nearest_km": 5.5, "nearest_office_flag": "Within 10miles" }, "geometry": { "type": "Point", "coordinates": [ 387904.0, 394205.0 ] } },
{ "type": "Feature", "properties": { "pcds": "M20 1JE", "lsoa21": "E01005275", "nearest_office_id": 6.0, "foe_office": "Manchester", "distance_to_nearest_m": 5972.0, "distance_to_nearest_km": 6.0, "nearest_office_flag": "Within 10miles" }, "geometry": { "type": "Point", "coordinates": [ 384329.0, 392572.0 ] } },
{ "type": "Feature", "properties": { "pcds": "ME7 2QU", "lsoa21": "E01016038", "nearest_office_id": 7.0, "foe_office": "London", "distance_to_nearest_m": 48531.0, "distance_to_nearest_km": 48.5, "nearest_office_flag": "Further than 10miles" }, "geometry": { "type": "Point", "coordinates": [ 578658.0, 168837.0 ] } },
{ "type": "Feature", "properties": { "pcds": "ME8 8NU", "lsoa21": "E01016097", "nearest_office_id": 7.0, "foe_office": "London", "distance_to_nearest_m": 52983.0, "distance_to_nearest_km": 53.0, "nearest_office_flag": "Further than 10miles" }, "geometry": { "type": "Point", "coordinates": [ 582669.0, 166093.0 ] } },
{ "type": "Feature", "properties": { "pcds": "MK40 4TT", "lsoa21": "E01034417", "nearest_office_id": 7.0, "foe_office": "London", "distance_to_nearest_m": 77084.0, "distance_to_nearest_km": 77.1, "nearest_office_flag": "Further than 10miles" }, "geometry": { "type": "Point", "coordinates": [ 501838.0, 248361.0 ] } },
{ "type": "Feature", "properties": { "pcds": "N1 6LU", "lsoa21": "E01033709", "nearest_office_id": 7.0, "foe_office": "London", "distance_to_nearest_m": 6454.0, "distance_to_nearest_km": 6.5, "nearest_office_flag": "Within 10miles" }, "geometry": { "type": "Point", "coordinates": [ 532880.0, 183039.0 ] } },
{ "type": "Feature", "properties": { "pcds": "N15 3LS", "lsoa21": "E01002087", "nearest_office_id": 7.0, "foe_office": "London", "distance_to_nearest_m": 12504.0, "distance_to_nearest_km": 12.5, "nearest_office_flag": "Within 10miles" }, "geometry": { "type": "Point", "coordinates": [ 532087.0, 189365.0 ] } },
{ "type": "Feature", "properties": { "pcds": "N15 5JB", "lsoa21": "E01002070", "nearest_office_id": 7.0, "foe_office": "London", "distance_to_nearest_m": 12198.0, "distance_to_nearest_km": 12.2, "nearest_office_flag": "Within 10miles" }, "geometry": { "type": "Point", "coordinates": [ 532994.0, 188927.0 ] } },
{ "type": "Feature", "properties": { "pcds": "N15 6AQ", "lsoa21": "E01002056", "nearest_office_id": 7.0, "foe_office": "London", "distance_to_nearest_m": 11275.0, "distance_to_nearest_km": 11.3, "nearest_office_flag": "Within 10miles" }, "geometry": { "type": "Point", "coordinates": [ 532663.0, 188048.0 ] } },
{ "type": "Feature", "properties": { "pcds": "N16 8LD", "lsoa21": "E01002778", "nearest_office_id": 7.0, "foe_office": "London", "distance_to_nearest_m": 8549.0, "distance_to_nearest_km": 8.5, "nearest_office_flag": "Within 10miles" }, "geometry": { "type": "Point", "coordinates": [ 533379.0, 185080.0 ] } },
{ "type": "Feature", "properties": { "pcds": "N16 8SL", "lsoa21": "E01001736", "nearest_office_id": 7.0, "foe_office": "London", "distance_to_nearest_m": 9276.0, "distance_to_nearest_km": 9.3, "nearest_office_flag": "Within 10miles" }, "geometry": { "type": "Point", "coordinates": [ 533252.0, 185875.0 ] } },
{ "type": "Feature", "properties": { "pcds": "N16 9LR", "lsoa21": "E01001739", "nearest_office_id": 7.0, "foe_office": "London", "distance_to_nearest_m": 9052.0, "distance_to_nearest_km": 9.1, "nearest_office_flag": "Within 10miles" }, "geometry": { "type": "Point", "coordinates": [ 532827.0, 185750.0 ] } },
{ "type": "Feature", "properties": { "pcds": "N19 3HF", "lsoa21": "E01002753", "nearest_office_id": 7.0, "foe_office": "London", "distance_to_nearest_m": 10120.0, "distance_to_nearest_km": 10.1, "nearest_office_flag": "Within 10miles" }, "geometry": { "type": "Point", "coordinates": [ 529974.0, 187013.0 ] } },
{ "type": "Feature", "properties": { "pcds": "N20 0TN", "lsoa21": "E01000274", "nearest_office_id": 7.0, "foe_office": "London", "distance_to_nearest_m": 17307.0, "distance_to_nearest_km": 17.3, "nearest_office_flag": "Further than 10miles" }, "geometry": { "type": "Point", "coordinates": [ 527355.0, 193886.0 ] } },
{ "type": "Feature", "properties": { "pcds": "N21 1SX", "lsoa21": "E01001522", "nearest_office_id": 7.0, "foe_office": "London", "distance_to_nearest_m": 18982.0, "distance_to_nearest_km": 19.0, "nearest_office_flag": "Further than 10miles" }, "geometry": { "type": "Point", "coordinates": [ 530784.0, 195909.0 ] } },
{ "type": "Feature", "properties": { "pcds": "N22 6LG", "lsoa21": "E01002032", "nearest_office_id": 7.0, "foe_office": "London", "distance_to_nearest_m": 13471.0, "distance_to_nearest_km": 13.5, "nearest_office_flag": "Within 10miles" }, "geometry": { "type": "Point", "coordinates": [ 531707.0, 190368.0 ] } },
{ "type": "Feature", "properties": { "pcds": "N6 5DW", "lsoa21": "E01001985", "nearest_office_id": 7.0, "foe_office": "London", "distance_to_nearest_m": 11106.0, "distance_to_nearest_km": 11.1, "nearest_office_flag": "Within 10miles" }, "geometry": { "type": "Point", "coordinates": [ 529605.0, 187968.0 ] } },
{ "type": "Feature", "properties": { "pcds": "N7 9SH", "lsoa21": "E01002767", "nearest_office_id": 7.0, "foe_office": "London", "distance_to_nearest_m": 8653.0, "distance_to_nearest_km": 8.7, "nearest_office_flag": "Within 10miles" }, "geometry": { "type": "Point", "coordinates": [ 530637.0, 185578.0 ] } },
{ "type": "Feature", "properties": { "pcds": "NE11 9HH", "lsoa21": "E01008209", "nearest_office_id": 5.0, "foe_office": "Leeds", "distance_to_nearest_m": 128937.0, "distance_to_nearest_km": 128.9, "nearest_office_flag": "Further than 10miles" }, "geometry": { "type": "Point", "coordinates": [ 422820.0, 562491.0 ] } },
{ "type": "Feature", "properties": { "pcds": "NE12 9NU", "lsoa21": "E01008472", "nearest_office_id": 5.0, "foe_office": "Leeds", "distance_to_nearest_m": 135413.0, "distance_to_nearest_km": 135.4, "nearest_office_flag": "Further than 10miles" }, "geometry": { "type": "Point", "coordinates": [ 427954.0, 569143.0 ] } },
{ "type": "Feature", "properties": { "pcds": "NE2 3LA", "lsoa21": "E01008371", "nearest_office_id": 5.0, "foe_office": "Leeds", "distance_to_nearest_m": 133347.0, "distance_to_nearest_km": 133.3, "nearest_office_flag": "Further than 10miles" }, "geometry": { "type": "Point", "coordinates": [ 425178.0, 567010.0 ] } },
{ "type": "Feature", "properties": { "pcds": "NE3 1AX", "lsoa21": "E01008354", "nearest_office_id": 5.0, "foe_office": "Leeds", "distance_to_nearest_m": 134639.0, "distance_to_nearest_km": 134.6, "nearest_office_flag": "Further than 10miles" }, "geometry": { "type": "Point", "coordinates": [ 424995.0, 568296.0 ] } },
{ "type": "Feature", "properties": { "pcds": "NE63 8HT", "lsoa21": "E01027524", "nearest_office_id": 5.0, "foe_office": "Leeds", "distance_to_nearest_m": 153814.0, "distance_to_nearest_km": 153.8, "nearest_office_flag": "Further than 10miles" }, "geometry": { "type": "Point", "coordinates": [ 426807.0, 587527.0 ] } },
{ "type": "Feature", "properties": { "pcds": "NG12 2ET", "lsoa21": "E01028393", "nearest_office_id": 1.0, "foe_office": "Birmingham", "distance_to_nearest_m": 77413.0, "distance_to_nearest_km": 77.4, "nearest_office_flag": "Further than 10miles" }, "geometry": { "type": "Point", "coordinates": [ 464428.0, 339104.0 ] } },
{ "type": "Feature", "properties": { "pcds": "NG4 3SG", "lsoa21": "E01028212", "nearest_office_id": 1.0, "foe_office": "Birmingham", "distance_to_nearest_m": 76673.0, "distance_to_nearest_km": 76.7, "nearest_office_flag": "Further than 10miles" }, "geometry": { "type": "Point", "coordinates": [ 460124.0, 342403.0 ] } },
{ "type": "Feature", "properties": { "pcds": "NN1 3QU", "lsoa21": "E01027225", "nearest_office_id": 1.0, "foe_office": "Birmingham", "distance_to_nearest_m": 73179.0, "distance_to_nearest_km": 73.2, "nearest_office_flag": "Further than 10miles" }, "geometry": { "type": "Point", "coordinates": [ 476243.0, 261440.0 ] } },
{ "type": "Feature", "properties": { "pcds": "NN18 9BE", "lsoa21": "E01026966", "nearest_office_id": 1.0, "foe_office": "Birmingham", "distance_to_nearest_m": 79371.0, "distance_to_nearest_km": 79.4, "nearest_office_flag": "Further than 10miles" }, "geometry": { "type": "Point", "coordinates": [ 486896.0, 287468.0 ] } },
{ "type": "Feature", "properties": { "pcds": "NR27 9DJ", "lsoa21": "E01026735", "nearest_office_id": 7.0, "foe_office": "London", "distance_to_nearest_m": 188385.0, "distance_to_nearest_km": 188.4, "nearest_office_flag": "Further than 10miles" }, "geometry": { "type": "Point", "coordinates": [ 621966.0, 341787.0 ] } },
{ "type": "Feature", "properties": { "pcds": "NW10 9TP", "lsoa21": "E01000508", "nearest_office_id": 7.0, "foe_office": "London", "distance_to_nearest_m": 11900.0, "distance_to_nearest_km": 11.9, "nearest_office_flag": "Within 10miles" }, "geometry": { "type": "Point", "coordinates": [ 521605.0, 184473.0 ] } },
{ "type": "Feature", "properties": { "pcds": "NW3 6BP", "lsoa21": "E01000881", "nearest_office_id": 7.0, "foe_office": "London", "distance_to_nearest_m": 9319.0, "distance_to_nearest_km": 9.3, "nearest_office_flag": "Within 10miles" }, "geometry": { "type": "Point", "coordinates": [ 526169.0, 185011.0 ] } },
{ "type": "Feature", "properties": { "pcds": "NW9 4BS", "lsoa21": "E01000154", "nearest_office_id": 7.0, "foe_office": "London", "distance_to_nearest_m": 16238.0, "distance_to_nearest_km": 16.2, "nearest_office_flag": "Further than 10miles" }, "geometry": { "type": "Point", "coordinates": [ 521611.0, 190311.0 ] } },
{ "type": "Feature", "properties": { "pcds": "OL14 5HW", "lsoa21": "E01010983", "nearest_office_id": 6.0, "foe_office": "Manchester", "distance_to_nearest_m": 27636.0, "distance_to_nearest_km": 27.6, "nearest_office_flag": "Further than 10miles" }, "geometry": { "type": "Point", "coordinates": [ 393705.0, 424619.0 ] } },
{ "type": "Feature", "properties": { "pcds": "OL14 8EG", "lsoa21": "E01010987", "nearest_office_id": 6.0, "foe_office": "Manchester", "distance_to_nearest_m": 28117.0, "distance_to_nearest_km": 28.1, "nearest_office_flag": "Further than 10miles" }, "geometry": { "type": "Point", "coordinates": [ 392958.0, 425374.0 ] } },
{ "type": "Feature", "properties": { "pcds": "OX1 5QP", "lsoa21": "E01028735", "nearest_office_id": 7.0, "foe_office": "London", "distance_to_nearest_m": 82190.0, "distance_to_nearest_km": 82.2, "nearest_office_flag": "Further than 10miles" }, "geometry": { "type": "Point", "coordinates": [ 452431.0, 201678.0 ] } },
{ "type": "Feature", "properties": { "pcds": "PE28 9AN", "lsoa21": "E01018202", "nearest_office_id": 7.0, "foe_office": "London", "distance_to_nearest_m": 94376.0, "distance_to_nearest_km": 94.4, "nearest_office_flag": "Further than 10miles" }, "geometry": { "type": "Point", "coordinates": [ 527974.0, 271260.0 ] } },
{ "type": "Feature", "properties": { "pcds": "PL20 7NP", "lsoa21": "E01020315", "nearest_office_id": 3.0, "foe_office": "Bristol", "distance_to_nearest_m": 152762.0, "distance_to_nearest_km": 152.8, "nearest_office_flag": "Further than 10miles" }, "geometry": { "type": "Point", "coordinates": [ 248135.0, 68022.0 ] } },
{ "type": "Feature", "properties": { "pcds": "RH1 2AX", "lsoa21": "E01030619", "nearest_office_id": 7.0, "foe_office": "London", "distance_to_nearest_m": 25745.0, "distance_to_nearest_km": 25.7, "nearest_office_flag": "Further than 10miles" }, "geometry": { "type": "Point", "coordinates": [ 527372.0, 151412.0 ] } },
{ "type": "Feature", "properties": { "pcds": "RH1 6TG", "lsoa21": "E01030572", "nearest_office_id": 7.0, "foe_office": "London", "distance_to_nearest_m": 28254.0, "distance_to_nearest_km": 28.3, "nearest_office_flag": "Further than 10miles" }, "geometry": { "type": "Point", "coordinates": [ 528136.0, 148799.0 ] } },
{ "type": "Feature", "properties": { "pcds": "RH4 2BN", "lsoa21": "E01030537", "nearest_office_id": 7.0, "foe_office": "London", "distance_to_nearest_m": 30704.0, "distance_to_nearest_km": 30.7, "nearest_office_flag": "Further than 10miles" }, "geometry": { "type": "Point", "coordinates": [ 516903.0, 149551.0 ] } },
{ "type": "Feature", "properties": { "pcds": "RM3 0HY", "lsoa21": "E01033785", "nearest_office_id": 7.0, "foe_office": "London", "distance_to_nearest_m": 27282.0, "distance_to_nearest_km": 27.3, "nearest_office_flag": "Further than 10miles" }, "geometry": { "type": "Point", "coordinates": [ 554420.0, 190590.0 ] } },
{ "type": "Feature", "properties": { "pcds": "S11 7GL", "lsoa21": "E01007936", "nearest_office_id": 5.0, "foe_office": "Leeds", "distance_to_nearest_m": 48627.0, "distance_to_nearest_km": 48.6, "nearest_office_flag": "Further than 10miles" }, "geometry": { "type": "Point", "coordinates": [ 432671.0, 385201.0 ] } },
{ "type": "Feature", "properties": { "pcds": "S11 8RG", "lsoa21": "E01034843", "nearest_office_id": 5.0, "foe_office": "Leeds", "distance_to_nearest_m": 47859.0, "distance_to_nearest_km": 47.9, "nearest_office_flag": "Further than 10miles" }, "geometry": { "type": "Point", "coordinates": [ 433593.0, 386035.0 ] } },
{ "type": "Feature", "properties": { "pcds": "SA31 3DX", "lsoa21": "W01000645", "nearest_office_id": 4.0, "foe_office": "Cardiff", "distance_to_nearest_m": 88099.0, "distance_to_nearest_km": 88.1, "nearest_office_flag": "Further than 10miles" }, "geometry": { "type": "Point", "coordinates": [ 240724.0, 220197.0 ] } },
{ "type": "Feature", "properties": { "pcds": "SA62 6HL", "lsoa21": "W01000555", "nearest_office_id": 4.0, "foe_office": "Cardiff", "distance_to_nearest_m": 134338.0, "distance_to_nearest_km": 134.3, "nearest_office_flag": "Further than 10miles" }, "geometry": { "type": "Point", "coordinates": [ 190097.0, 219739.0 ] } },
{ "type": "Feature", "properties": { "pcds": "SE13 5RT", "lsoa21": "E01003203", "nearest_office_id": 7.0, "foe_office": "London", "distance_to_nearest_m": 8492.0, "distance_to_nearest_km": 8.5, "nearest_office_flag": "Within 10miles" }, "geometry": { "type": "Point", "coordinates": [ 539136.0, 175274.0 ] } },
{ "type": "Feature", "properties": { "pcds": "SE14 5XG", "lsoa21": "E01003301", "nearest_office_id": 7.0, "foe_office": "London", "distance_to_nearest_m": 4975.0, "distance_to_nearest_km": 5.0, "nearest_office_flag": "Within 10miles" }, "geometry": { "type": "Point", "coordinates": [ 535741.0, 177555.0 ] } },
{ "type": "Feature", "properties": { "pcds": "SE15 4EE", "lsoa21": "E01004046", "nearest_office_id": 7.0, "foe_office": "London", "distance_to_nearest_m": 3341.0, "distance_to_nearest_km": 3.3, "nearest_office_flag": "Within 10miles" }, "geometry": { "type": "Point", "coordinates": [ 533866.0, 175586.0 ] } },
{ "type": "Feature", "properties": { "pcds": "SE15 6JF", "lsoa21": "E01004011", "nearest_office_id": 7.0, "foe_office": "London", "distance_to_nearest_m": 2819.0, "distance_to_nearest_km": 2.8, "nearest_office_flag": "Within 10miles" }, "geometry": { "type": "Point", "coordinates": [ 533618.0, 177125.0 ] } },
{ "type": "Feature", "properties": { "pcds": "SE15 6JF", "lsoa21": "E01004011", "nearest_office_id": 7.0, "foe_office": "London", "distance_to_nearest_m": 2819.0, "distance_to_nearest_km": 2.8, "nearest_office_flag": "Within 10miles" }, "geometry": { "type": "Point", "coordinates": [ 533618.0, 177125.0 ] } },
{ "type": "Feature", "properties": { "pcds": "SE18 7QT", "lsoa21": "E01001632", "nearest_office_id": 7.0, "foe_office": "London", "distance_to_nearest_m": 13943.0, "distance_to_nearest_km": 13.9, "nearest_office_flag": "Within 10miles" }, "geometry": { "type": "Point", "coordinates": [ 544687.0, 178239.0 ] } },
{ "type": "Feature", "properties": { "pcds": "SE19 3EH", "lsoa21": "E01001159", "nearest_office_id": 7.0, "foe_office": "London", "distance_to_nearest_m": 6894.0, "distance_to_nearest_km": 6.9, "nearest_office_flag": "Within 10miles" }, "geometry": { "type": "Point", "coordinates": [ 532326.0, 170203.0 ] } },
{ "type": "Feature", "properties": { "pcds": "SE20 8ND", "lsoa21": "E01000742", "nearest_office_id": 7.0, "foe_office": "London", "distance_to_nearest_m": 7709.0, "distance_to_nearest_km": 7.7, "nearest_office_flag": "Within 10miles" }, "geometry": { "type": "Point", "coordinates": [ 534516.0, 170170.0 ] } },
{ "type": "Feature", "properties": { "pcds": "SE21 8BN", "lsoa21": "E01003951", "nearest_office_id": 7.0, "foe_office": "London", "distance_to_nearest_m": 4898.0, "distance_to_nearest_km": 4.9, "nearest_office_flag": "Within 10miles" }, "geometry": { "type": "Point", "coordinates": [ 532954.0, 172525.0 ] } },
{ "type": "Feature", "properties": { "pcds": "SE21 8LJ", "lsoa21": "E01003170", "nearest_office_id": 7.0, "foe_office": "London", "distance_to_nearest_m": 4188.0, "distance_to_nearest_km": 4.2, "nearest_office_flag": "Within 10miles" }, "geometry": { "type": "Point", "coordinates": [ 532482.0, 173089.0 ] } },
{ "type": "Feature", "properties": { "pcds": "SE25 4AS", "lsoa21": "E01001142", "nearest_office_id": 7.0, "foe_office": "London", "distance_to_nearest_m": 8291.0, "distance_to_nearest_km": 8.3, "nearest_office_flag": "Within 10miles" }, "geometry": { "type": "Point", "coordinates": [ 533625.0, 169130.0 ] } },
{ "type": "Feature", "properties": { "pcds": "SE25 6DG", "lsoa21": "E01001150", "nearest_office_id": 7.0, "foe_office": "London", "distance_to_nearest_m": 8199.0, "distance_to_nearest_km": 8.2, "nearest_office_flag": "Within 10miles" }, "geometry": { "type": "Point", "coordinates": [ 533217.0, 169090.0 ] } },
{ "type": "Feature", "properties": { "pcds": "SE3 0JD", "lsoa21": "E01001582", "nearest_office_id": 7.0, "foe_office": "London", "distance_to_nearest_m": 10179.0, "distance_to_nearest_km": 10.2, "nearest_office_flag": "Within 10miles" }, "geometry": { "type": "Point", "coordinates": [ 540959.0, 176206.0 ] } },
{ "type": "Feature", "properties": { "pcds": "SE6 1DF", "lsoa21": "E01003216", "nearest_office_id": 7.0, "foe_office": "London", "distance_to_nearest_m": 8430.0, "distance_to_nearest_km": 8.4, "nearest_office_flag": "Within 10miles" }, "geometry": { "type": "Point", "coordinates": [ 538374.0, 173213.0 ] } },
{ "type": "Feature", "properties": { "pcds": "SE6 1SL", "lsoa21": "E01003219", "nearest_office_id": 7.0, "foe_office": "London", "distance_to_nearest_m": 8802.0, "distance_to_nearest_km": 8.8, "nearest_office_flag": "Within 10miles" }, "geometry": { "type": "Point", "coordinates": [ 538588.0, 172815.0 ] } },
{ "type": "Feature", "properties": { "pcds": "SE6 1TH", "lsoa21": "E01003222", "nearest_office_id": 7.0, "foe_office": "London", "distance_to_nearest_m": 9276.0, "distance_to_nearest_km": 9.3, "nearest_office_flag": "Within 10miles" }, "geometry": { "type": "Point", "coordinates": [ 539199.0, 172977.0 ] } },
{ "type": "Feature", "properties": { "pcds": "SE6 1XW", "lsoa21": "E01003224", "nearest_office_id": 7.0, "foe_office": "London", "distance_to_nearest_m": 8741.0, "distance_to_nearest_km": 8.7, "nearest_office_flag": "Within 10miles" }, "geometry": { "type": "Point", "coordinates": [ 538821.0, 173438.0 ] } },
{ "type": "Feature", "properties": { "pcds": "SE6 2LJ", "lsoa21": "E01003221", "nearest_office_id": 7.0, "foe_office": "London", "distance_to_nearest_m": 8029.0, "distance_to_nearest_km": 8.0, "nearest_office_flag": "Within 10miles" }, "geometry": { "type": "Point", "coordinates": [ 537889.0, 173146.0 ] } },
{ "type": "Feature", "properties": { "pcds": "SE8 4EB", "lsoa21": "E01033324", "nearest_office_id": 7.0, "foe_office": "London", "distance_to_nearest_m": 6555.0, "distance_to_nearest_km": 6.6, "nearest_office_flag": "Within 10miles" }, "geometry": { "type": "Point", "coordinates": [ 537346.0, 176489.0 ] } },
{ "type": "Feature", "properties": { "pcds": "SO50 7DG", "lsoa21": "E01022687", "nearest_office_id": 2.0, "foe_office": "Brighton", "distance_to_nearest_m": 82609.0, "distance_to_nearest_km": 82.6, "nearest_office_flag": "Further than 10miles" }, "geometry": { "type": "Point", "coordinates": [ 449292.0, 116734.0 ] } },
{ "type": "Feature", "properties": { "pcds": "SW16 4JA", "lsoa21": "E01001088", "nearest_office_id": 7.0, "foe_office": "London", "distance_to_nearest_m": 7997.0, "distance_to_nearest_km": 8.0, "nearest_office_flag": "Within 10miles" }, "geometry": { "type": "Point", "coordinates": [ 530229.0, 168951.0 ] } },
{ "type": "Feature", "properties": { "pcds": "SW18 3TB", "lsoa21": "E01004490", "nearest_office_id": 7.0, "foe_office": "London", "distance_to_nearest_m": 6337.0, "distance_to_nearest_km": 6.3, "nearest_office_flag": "Within 10miles" }, "geometry": { "type": "Point", "coordinates": [ 526260.0, 172512.0 ] } },
{ "type": "Feature", "properties": { "pcds": "SW19 2AL", "lsoa21": "E01003369", "nearest_office_id": 7.0, "foe_office": "London", "distance_to_nearest_m": 7165.0, "distance_to_nearest_km": 7.2, "nearest_office_flag": "Within 10miles" }, "geometry": { "type": "Point", "coordinates": [ 526929.0, 170902.0 ] } },
{ "type": "Feature", "properties": { "pcds": "SW2 1LU", "lsoa21": "E01003176", "nearest_office_id": 7.0, "foe_office": "London", "distance_to_nearest_m": 2263.0, "distance_to_nearest_km": 2.3, "nearest_office_flag": "Within 10miles" }, "geometry": { "type": "Point", "coordinates": [ 531025.0, 174675.0 ] } },
{ "type": "Feature", "properties": { "pcds": "TN16 3XD", "lsoa21": "E01000659", "nearest_office_id": 7.0, "foe_office": "London", "distance_to_nearest_m": 20595.0, "distance_to_nearest_km": 20.6, "nearest_office_flag": "Further than 10miles" }, "geometry": { "type": "Point", "coordinates": [ 541139.0, 159112.0 ] } },
{ "type": "Feature", "properties": { "pcds": "TQ3 1SF", "lsoa21": "E01020170", "nearest_office_id": 3.0, "foe_office": "Bristol", "distance_to_nearest_m": 131271.0, "distance_to_nearest_km": 131.3, "nearest_office_flag": "Further than 10miles" }, "geometry": { "type": "Point", "coordinates": [ 286602.0, 63530.0 ] } },
{ "type": "Feature", "properties": { "pcds": "TQ5 0NQ", "lsoa21": "E01015201", "nearest_office_id": 3.0, "foe_office": "Bristol", "distance_to_nearest_m": 136306.0, "distance_to_nearest_km": 136.3, "nearest_office_flag": "Further than 10miles" }, "geometry": { "type": "Point", "coordinates": [ 288682.0, 56251.0 ] } },
{ "type": "Feature", "properties": { "pcds": "TQ9 5JS", "lsoa21": "E01020180", "nearest_office_id": 3.0, "foe_office": "Bristol", "distance_to_nearest_m": 137072.0, "distance_to_nearest_km": 137.1, "nearest_office_flag": "Further than 10miles" }, "geometry": { "type": "Point", "coordinates": [ 280062.0, 60981.0 ] } },
{ "type": "Feature", "properties": { "pcds": "TW5 0HP", "lsoa21": "E01002625", "nearest_office_id": 7.0, "foe_office": "London", "distance_to_nearest_m": 18141.0, "distance_to_nearest_km": 18.1, "nearest_office_flag": "Further than 10miles" }, "geometry": { "type": "Point", "coordinates": [ 512695.0, 177978.0 ] } },
{ "type": "Feature", "properties": { "pcds": "UB5 5BG", "lsoa21": "E01001324", "nearest_office_id": 7.0, "foe_office": "London", "distance_to_nearest_m": 19632.0, "distance_to_nearest_km": 19.6, "nearest_office_flag": "Further than 10miles" }, "geometry": { "type": "Point", "coordinates": [ 512362.0, 183652.0 ] } },
{ "type": "Feature", "properties": { "pcds": "UB7 9LE", "lsoa21": "E01002526", "nearest_office_id": 7.0, "foe_office": "London", "distance_to_nearest_m": 24088.0, "distance_to_nearest_km": 24.1, "nearest_office_flag": "Further than 10miles" }, "geometry": { "type": "Point", "coordinates": [ 506840.0, 179352.0 ] } },
{ "type": "Feature", "properties": { "pcds": "W11 3RS", "lsoa21": "E01002868", "nearest_office_id": 7.0, "foe_office": "London", "distance_to_nearest_m": 7049.0, "distance_to_nearest_km": 7.0, "nearest_office_flag": "Within 10miles" }, "geometry": { "type": "Point", "coordinates": [ 524494.0, 180064.0 ] } },
{ "type": "Feature", "properties": { "pcds": "W3 0JR", "lsoa21": "E01001197", "nearest_office_id": 7.0, "foe_office": "London", "distance_to_nearest_m": 12259.0, "distance_to_nearest_km": 12.3, "nearest_office_flag": "Within 10miles" }, "geometry": { "type": "Point", "coordinates": [ 519293.0, 181139.0 ] } },
{ "type": "Feature", "properties": { "pcds": "YO10 4DW", "lsoa21": "E01013361", "nearest_office_id": 5.0, "foe_office": "Leeds", "distance_to_nearest_m": 35120.0, "distance_to_nearest_km": 35.1, "nearest_office_flag": "Further than 10miles" }, "geometry": { "type": "Point", "coordinates": [ 460643.0, 450502.0 ] } },
{ "type": "Feature", "properties": { "pcds": "YO60 6SN", "lsoa21": "E01027799", "nearest_office_id": 5.0, "foe_office": "Leeds", "distance_to_nearest_m": 47847.0, "distance_to_nearest_km": 47.8, "nearest_office_flag": "Further than 10miles" }, "geometry": { "type": "Point", "coordinates": [ 464734.0, 466415.0 ] } },
{ "type": "Feature", "properties": { "pcds": "BT12 6AT", "lsoa21": "N21000335", "nearest_office_id": 8.0, "foe_office": "Belfast", "distance_to_nearest_m": 2211.0, "distance_to_nearest_km": 2.2, "nearest_office_flag": "Within 10miles" }, "geometry": { "type": "Point", "coordinates": [ 144250.866827862802893, 529047.493864182732068 ] } },
{ "type": "Feature", "properties": { "pcds": "BT23 5PG", "lsoa21": "N21000775", "nearest_office_id": 8.0, "foe_office": "Belfast", "distance_to_nearest_m": 12256.0, "distance_to_nearest_km": 12.3, "nearest_office_flag": "Within 10miles" }, "geometry": { "type": "Point", "coordinates": [ 156494.956305700878147, 523065.102794790756889 ] } },
{ "type": "Feature", "properties": { "pcds": "BT35 7GG", "lsoa21": "N21000696", "nearest_office_id": 8.0, "foe_office": "Belfast", "distance_to_nearest_m": 53869.0, "distance_to_nearest_km": 53.9, "nearest_office_flag": "Further than 10miles" }, "geometry": { "type": "Point", "coordinates": [ 114119.607112417230383, 486673.048468633322045 ] } },
{ "type": "Feature", "properties": { "pcds": "BT4 2EH", "lsoa21": "N21000223", "nearest_office_id": 8.0, "foe_office": "Belfast", "distance_to_nearest_m": 3840.0, "distance_to_nearest_km": 3.8, "nearest_office_flag": "Within 10miles" }, "geometry": { "type": "Point", "coordinates": [ 150142.897746668168111, 529864.026158898719586 ] } },
{ "type": "Feature", "properties": { "pcds": "BT48 0GB", "lsoa21": "N21000408", "nearest_office_id": 8.0, "foe_office": "Belfast", "distance_to_nearest_m": 100987.0, "distance_to_nearest_km": 101.0, "nearest_office_flag": "Further than 10miles" }, "geometry": { "type": "Point", "coordinates": [ 59404.04443681408884, 581319.301502988557331 ] } },
{ "type": "Feature", "properties": { "pcds": "BT6 8LE", "lsoa21": "N21000239", "nearest_office_id": 8.0, "foe_office": "Belfast", "distance_to_nearest_m": 2267.0, "distance_to_nearest_km": 2.3, "nearest_office_flag": "Within 10miles" }, "geometry": { "type": "Point", "coordinates": [ 147848.355489609733922, 528212.515649648150429 ] } },
{ "type": "Feature", "properties": { "pcds": "BT6 9GN", "lsoa21": "N21000236", "nearest_office_id": 8.0, "foe_office": "Belfast", "distance_to_nearest_m": 2731.0, "distance_to_nearest_km": 2.7, "nearest_office_flag": "Within 10miles" }, "geometry": { "type": "Point", "coordinates": [ 148240.220656516990857, 527947.036542213987559 ] } }
]
}
